CCSDS_OMM_VERS = 2.0
CREATION_DATE  = 
ORIGINATOR     = 

OBJECT_NAME    = STARLINK-36215
OBJECT_ID      = 2025-298AB
CENTER_NAME    = EARTH
REF_FRAME      = TEME
TIME_SYSTEM    = UTC
MEAN_ELEMENT_THEORY = SGP/SGP4

EPOCH          = 2026-01-01T06:00:02.000160
MEAN_MOTION    = 15.54553968
ECCENTRICITY   = .0003527
INCLINATION    = 69.9992
RA_OF_ASC_NODE = 194.7339
ARG_OF_PERICENTER = 271.8104
MEAN_ANOMALY   = 323.2786

EPHEMERIS_TYPE = 0
CLASSIFICATION_TYPE = U
NORAD_CAT_ID   = 67100
ELEMENT_SET_NO = 999
REV_AT_EPOCH   = 411
BSTAR          = -.3325651E-1
MEAN_MOTION_DOT = -.193993E-1
MEAN_MOTION_DDOT = 0

CCSDS_OMM_VERS = 2.0
CREATION_DATE  = 
ORIGINATOR     = 

OBJECT_NAME    = STARLINK-36200
OBJECT_ID      = 2025-298AC
CENTER_NAME    = EARTH
REF_FRAME      = TEME
TIME_SYSTEM    = UTC
MEAN_ELEMENT_THEORY = SGP/SGP4

EPOCH          = 2026-01-01T06:00:02.000160
MEAN_MOTION    = 15.54534851
ECCENTRICITY   = .00035795
INCLINATION    = 69.9991
RA_OF_ASC_NODE = 194.7395
ARG_OF_PERICENTER = 269.0937
MEAN_ANOMALY   = 322.1738

EPHEMERIS_TYPE = 0
CLASSIFICATION_TYPE = U
NORAD_CAT_ID   = 67101
ELEMENT_SET_NO = 999
REV_AT_EPOCH   = 411
BSTAR          = -.32856911E-1
MEAN_MOTION_DOT = -.1918242E-1
MEAN_MOTION_DDOT = 0

CCSDS_OMM_VERS = 2.0
CREATION_DATE  = 
ORIGINATOR     = 

OBJECT_NAME    = STARLINK-36255
OBJECT_ID      = 2025-299A
CENTER_NAME    = EARTH
REF_FRAME      = TEME
TIME_SYSTEM    = UTC
MEAN_ELEMENT_THEORY = SGP/SGP4

EPOCH          = 2026-01-01T06:00:02.000160
MEAN_MOTION    = 15.54934257
ECCENTRICITY   = .00014213
INCLINATION    = 42.9993
RA_OF_ASC_NODE = 197.8805
ARG_OF_PERICENTER = 263.7785
MEAN_ANOMALY   = 311.3878

EPHEMERIS_TYPE = 0
CLASSIFICATION_TYPE = U
NORAD_CAT_ID   = 67102
ELEMENT_SET_NO = 999
REV_AT_EPOCH   = 394
BSTAR          = -.31875288E-1
MEAN_MOTION_DOT = -.1927635E-1
MEAN_MOTION_DDOT = 0

CCSDS_OMM_VERS = 2.0
CREATION_DATE  = 
ORIGINATOR     = 

OBJECT_NAME    = STARLINK-36256
OBJECT_ID      = 2025-299B
CENTER_NAME    = EARTH
REF_FRAME      = TEME
TIME_SYSTEM    = UTC
MEAN_ELEMENT_THEORY = SGP/SGP4

EPOCH          = 2026-01-01T06:00:02.000160
MEAN_MOTION    = 15.54957275
ECCENTRICITY   = .00011973
INCLINATION    = 42.9997
RA_OF_ASC_NODE = 197.8763
ARG_OF_PERICENTER = 265.3347
MEAN_ANOMALY   = 311.6716

EPHEMERIS_TYPE = 0
CLASSIFICATION_TYPE = U
NORAD_CAT_ID   = 67103
ELEMENT_SET_NO = 999
REV_AT_EPOCH   = 394
BSTAR          = -.3193455E-1
MEAN_MOTION_DOT = -.1932092E-1
MEAN_MOTION_DDOT = 0

CCSDS_OMM_VERS = 2.0
CREATION_DATE  = 
ORIGINATOR     = 

OBJECT_NAME    = STARLINK-36258
OBJECT_ID      = 2025-299C
CENTER_NAME    = EARTH
REF_FRAME      = TEME
TIME_SYSTEM    = UTC
MEAN_ELEMENT_THEORY = SGP/SGP4

EPOCH          = 2026-01-01T06:00:02.000160
MEAN_MOTION    = 15.54972869
ECCENTRICITY   = .00012792
INCLINATION    = 42.9992
RA_OF_ASC_NODE = 197.8714
ARG_OF_PERICENTER = 261.7223
MEAN_ANOMALY   = 317.1440

EPHEMERIS_TYPE = 0
CLASSIFICATION_TYPE = U
NORAD_CAT_ID   = 67104
ELEMENT_SET_NO = 999
REV_AT_EPOCH   = 394
BSTAR          = -.3194053E-1
MEAN_MOTION_DOT = -.1933449E-1
MEAN_MOTION_DDOT = 0

CCSDS_OMM_VERS = 2.0
CREATION_DATE  = 
ORIGINATOR     = 

OBJECT_NAME    = STARLINK-36261
OBJECT_ID      = 2025-299D
CENTER_NAME    = EARTH
REF_FRAME      = TEME
TIME_SYSTEM    = UTC
MEAN_ELEMENT_THEORY = SGP/SGP4

EPOCH          = 2026-01-01T06:00:02.000160
MEAN_MOTION    = 15.54996963
ECCENTRICITY   = .00013881
INCLINATION    = 42.9995
RA_OF_ASC_NODE = 197.8670
ARG_OF_PERICENTER = 263.1792
MEAN_ANOMALY   = 317.5108

EPHEMERIS_TYPE = 0
CLASSIFICATION_TYPE = U
NORAD_CAT_ID   = 67105
ELEMENT_SET_NO = 999
REV_AT_EPOCH   = 394
BSTAR          = -.31851452E-1
MEAN_MOTION_DOT = -.1930301E-1
MEAN_MOTION_DDOT = 0

CCSDS_OMM_VERS = 2.0
CREATION_DATE  = 
ORIGINATOR     = 

OBJECT_NAME    = STARLINK-36259
OBJECT_ID      = 2025-299E
CENTER_NAME    = EARTH
REF_FRAME      = TEME
TIME_SYSTEM    = UTC
MEAN_ELEMENT_THEORY = SGP/SGP4

EPOCH          = 2026-01-01T06:00:02.000160
MEAN_MOTION    = 15.55018458
ECCENTRICITY   = .00013165
INCLINATION    = 42.9994
RA_OF_ASC_NODE = 197.8578
ARG_OF_PERICENTER = 260.3129
MEAN_ANOMALY   = 324.1409

EPHEMERIS_TYPE = 0
CLASSIFICATION_TYPE = U
NORAD_CAT_ID   = 67106
ELEMENT_SET_NO = 999
REV_AT_EPOCH   = 394
BSTAR          = -.31940982E-1
MEAN_MOTION_DOT = -.1936381E-1
MEAN_MOTION_DDOT = 0

CCSDS_OMM_VERS = 2.0
CREATION_DATE  = 
ORIGINATOR     = 

OBJECT_NAME    = STARLINK-36196
OBJECT_ID      = 2025-299F
CENTER_NAME    = EARTH
REF_FRAME      = TEME
TIME_SYSTEM    = UTC
MEAN_ELEMENT_THEORY = SGP/SGP4

EPOCH          = 2026-01-01T06:00:02.000160
MEAN_MOTION    = 15.55009184
ECCENTRICITY   = .00013232
INCLINATION    = 42.9995
RA_OF_ASC_NODE = 197.8624
ARG_OF_PERICENTER = 260.7106
MEAN_ANOMALY   = 321.8524

EPHEMERIS_TYPE = 0
CLASSIFICATION_TYPE = U
NORAD_CAT_ID   = 67107
ELEMENT_SET_NO = 999
REV_AT_EPOCH   = 394
BSTAR          = -.31892599E-1
MEAN_MOTION_DOT = -.1933222E-1
MEAN_MOTION_DDOT = 0

CCSDS_OMM_VERS = 2.0
CREATION_DATE  = 
ORIGINATOR     = 

OBJECT_NAME    = STARLINK-36208
OBJECT_ID      = 2025-299G
CENTER_NAME    = EARTH
REF_FRAME      = TEME
TIME_SYSTEM    = UTC
MEAN_ELEMENT_THEORY = SGP/SGP4

EPOCH          = 2026-01-01T06:00:02.000160
MEAN_MOTION    = 15.55026000
ECCENTRICITY   = .00014368
INCLINATION    = 42.9994
RA_OF_ASC_NODE = 197.8528
ARG_OF_PERICENTER = 258.0330
MEAN_ANOMALY   = 328.3091

EPHEMERIS_TYPE = 0
CLASSIFICATION_TYPE = U
NORAD_CAT_ID   = 67108
ELEMENT_SET_NO = 999
REV_AT_EPOCH   = 394
BSTAR          = -.3193113E-1
MEAN_MOTION_DOT = -.1936413E-1
MEAN_MOTION_DDOT = 0

CCSDS_OMM_VERS = 2.0
CREATION_DATE  = 
ORIGINATOR     = 

OBJECT_NAME    = STARLINK-35764
OBJECT_ID      = 2025-299H
CENTER_NAME    = EARTH
REF_FRAME      = TEME
TIME_SYSTEM    = UTC
MEAN_ELEMENT_THEORY = SGP/SGP4

EPOCH          = 2026-01-01T06:00:02.000160
MEAN_MOTION    = 15.55027801
ECCENTRICITY   = .00013354
INCLINATION    = 42.9994
RA_OF_ASC_NODE = 197.8486
ARG_OF_PERICENTER = 260.9048
MEAN_ANOMALY   = 327.3460

EPHEMERIS_TYPE = 0
CLASSIFICATION_TYPE = U
NORAD_CAT_ID   = 67109
ELEMENT_SET_NO = 999
REV_AT_EPOCH   = 383
BSTAR          = -.31910837E-1
MEAN_MOTION_DOT = -.1935379E-1
MEAN_MOTION_DDOT = 0

CCSDS_OMM_VERS = 2.0
CREATION_DATE  = 
ORIGINATOR     = 

OBJECT_NAME    = STARLINK-35781
OBJECT_ID      = 2025-299J
CENTER_NAME    = EARTH
REF_FRAME      = TEME
TIME_SYSTEM    = UTC
MEAN_ELEMENT_THEORY = SGP/SGP4

EPOCH          = 2026-01-01T06:00:02.000160
MEAN_MOTION    = 15.55036216
ECCENTRICITY   = .00013128
INCLINATION    = 42.9996
RA_OF_ASC_NODE = 197.8385
ARG_OF_PERICENTER = 258.6658
MEAN_ANOMALY   = 333.3834

EPHEMERIS_TYPE = 0
CLASSIFICATION_TYPE = U
NORAD_CAT_ID   = 67110
ELEMENT_SET_NO = 999
REV_AT_EPOCH   = 389
BSTAR          = -.31858312E-1
MEAN_MOTION_DOT = -.1933097E-1
MEAN_MOTION_DDOT = 0

CCSDS_OMM_VERS = 2.0
CREATION_DATE  = 
ORIGINATOR     = 

OBJECT_NAME    = STARLINK-35875
OBJECT_ID      = 2025-299K
CENTER_NAME    = EARTH
REF_FRAME      = TEME
TIME_SYSTEM    = UTC
MEAN_ELEMENT_THEORY = SGP/SGP4

EPOCH          = 2026-01-01T06:00:02.000160
MEAN_MOTION    = 15.55027855
ECCENTRICITY   = .00013896
INCLINATION    = 42.9996
RA_OF_ASC_NODE = 197.8439
ARG_OF_PERICENTER = 257.4993
MEAN_ANOMALY   = 332.6596

EPHEMERIS_TYPE = 0
CLASSIFICATION_TYPE = U
NORAD_CAT_ID   = 67111
ELEMENT_SET_NO = 999
REV_AT_EPOCH   = 383
BSTAR          = -.31851044E-1
MEAN_MOTION_DOT = -.1932231E-1
MEAN_MOTION_DDOT = 0

