STARLINK-36215          
1 67100U 25298AB  26001.25002315 -.01939930  00000+0 -33257-1 0  9993
2 67100  69.9992 194.7339 0003527 271.8104 323.2786 15.54553968  4114
STARLINK-36200          
1 67101U 25298AC  26001.25002315 -.01918242  00000+0 -32857-1 0  9992
2 67101  69.9991 194.7395 0003579 269.0937 322.1738 15.54534851  4111
STARLINK-36255          
1 67102U 25299A   26001.25002315 -.01927635  00000+0 -31875-1 0  9999
2 67102  42.9993 197.8805 0001421 263.7785 311.3878 15.54934257  3940
STARLINK-36256          
1 67103U 25299B   26001.25002315 -.01932092  00000+0 -31935-1 0  9990
2 67103  42.9997 197.8763 0001197 265.3347 311.6716 15.54957275  3949
STARLINK-36258          
1 67104U 25299C   26001.25002315 -.01933449  00000+0 -31941-1 0  9995
2 67104  42.9992 197.8714 0001279 261.7223 317.1440 15.54972869  3946
STARLINK-36261          
1 67105U 25299D   26001.25002315 -.01930301  00000+0 -31851-1 0  9990
2 67105  42.9995 197.8670 0001388 263.1792 317.5108 15.54996963  3945
STARLINK-36259          
1 67106U 25299E   26001.25002315 -.01936381  00000+0 -31941-1 0  9995
2 67106  42.9994 197.8578 0001316 260.3129 324.1409 15.55018458  3949
STARLINK-36196          
1 67107U 25299F   26001.25002315 -.01933222  00000+0 -31893-1 0  9993
2 67107  42.9995 197.8624 0001323 260.7106 321.8524 15.55009184  3948
STARLINK-36208          
1 67108U 25299G   26001.25002315 -.01936413  00000+0 -31931-1 0  9992
2 67108  42.9994 197.8528 0001436 258.0330 328.3091 15.55026000  3942
STARLINK-35764          
1 67109U 25299H   26001.25002315 -.01935379  00000+0 -31911-1 0  9991
2 67109  42.9994 197.8486 0001335 260.9048 327.3460 15.55027801  3839
STARLINK-35781          
1 67110U 25299J   26001.25002315 -.01933097  00000+0 -31858-1 0  9998
2 67110  42.9996 197.8385 0001312 258.6658 333.3834 15.55036216  3895
STARLINK-35875          
1 67111U 25299K   26001.25002315 -.01932231  00000+0 -31851-1 0  9991
2 67111  42.9996 197.8439 0001389 257.4993 332.6596 15.55027855  3839
